[{"OBJECT_NAME":"STARLINK-36064","OBJECT_ID":"2025-283X","EPOCH":"2026-03-09T02:41:36.868128","MEAN_MOTION":15.30188289,"ECCENTRICITY":9.045e-5,"INCLINATION":53.1607,"RA_OF_ASC_NODE":27.0019,"ARG_OF_PERICENTER":74.5347,"MEAN_ANOMALY":285.5753,"EPHEMERIS_TYPE":0,"CLASSIFICATION_TYPE":"U","NORAD_CAT_ID":66899,"ELEMENT_SET_NO":999,"REV_AT_EPOCH":1575,"BSTAR":0.001485195,"MEAN_MOTION_DOT":0.00043872,"MEAN_MOTION_DDOT":0},{"OBJECT_NAME":"CZ-6A DEB","OBJECT_ID":"2024-140XT","EPOCH":"2026-03-09T03:39:44.093088","MEAN_MOTION":15.17507252,"ECCENTRICITY":0.01850271,"INCLINATION":89.7161,"RA_OF_ASC_NODE":331.3348,"ARG_OF_PERICENTER":37.6736,"MEAN_ANOMALY":323.7298,"EPHEMERIS_TYPE":0,"CLASSIFICATION_TYPE":"U","NORAD_CAT_ID":61402,"ELEMENT_SET_NO":999,"REV_AT_EPOCH":8199,"BSTAR":0.0011238517,"MEAN_MOTION_DOT":0.00035461,"MEAN_MOTION_DDOT":0}]
